[{"OBJECT_NAME":"BADR-5","OBJECT_ID":"2010-025A","EPOCH":"2026-03-15T06:52:44.381856","MEAN_MOTION":1.00272939,"ECCENTRICITY":0.00016969,"INCLINATION":0.0595,"RA_OF_ASC_NODE":113.0856,"ARG_OF_PERICENTER":306.5393,"MEAN_ANOMALY":242.409,"EPHEMERIS_TYPE":0,"CLASSIFICATION_TYPE":"U","NORAD_CAT_ID":36592,"ELEMENT_SET_NO":999,"REV_AT_EPOCH":5227,"BSTAR":0,"MEAN_MOTION_DOT":1.44e-6,"MEAN_MOTION_DDOT":0},{"OBJECT_NAME":"COMS 1","OBJECT_ID":"2010-032A","EPOCH":"2026-03-14T22:48:38.307168","MEAN_MOTION":1.00272483,"ECCENTRICITY":8.055e-5,"INCLINATION":4.5606,"RA_OF_ASC_NODE":76.703,"ARG_OF_PERICENTER":289.7082,"MEAN_ANOMALY":276.4638,"EPHEMERIS_TYPE":0,"CLASSIFICATION_TYPE":"U","NORAD_CAT_ID":36744,"ELEMENT_SET_NO":999,"REV_AT_EPOCH":5014,"BSTAR":0,"MEAN_MOTION_DOT":-3.42e-6,"MEAN_MOTION_DDOT":0},{"OBJECT_NAME":"ARABSAT-5A","OBJECT_ID":"2010-032B","EPOCH":"2026-03-15T06:54:14.237856","MEAN_MOTION":1.00277159,"ECCENTRICITY":0.00030512,"INCLINATION":0.0679,"RA_OF_ASC_NODE":45.1232,"ARG_OF_PERICENTER":343.9126,"MEAN_ANOMALY":277.9659,"EPHEMERIS_TYPE":0,"CLASSIFICATION_TYPE":"U","NORAD_CAT_ID":36745,"ELEMENT_SET_NO":999,"REV_AT_EPOCH":5770,"BSTAR":0,"MEAN_MOTION_DOT":1.53e-6,"MEAN_MOTION_DDOT":0},{"OBJECT_NAME":"ECHOSTAR 15","OBJECT_ID":"2010-034A","EPOCH":"2026-03-15T06:11:40.818048","MEAN_MOTION":1.00272944,"ECCENTRICITY":0.00019459,"INCLINATION":0.0216,"RA_OF_ASC_NODE":252.7336,"ARG_OF_PERICENTER":107.4843,"MEAN_ANOMALY":146.7502,"EPHEMERIS_TYPE":0,"CLASSIFICATION_TYPE":"U","NORAD_CAT_ID":36792,"ELEMENT_SET_NO":999,"REV_AT_EPOCH":5738,"BSTAR":0,"MEAN_MOTION_DOT":-1.0e-8,"MEAN_MOTION_DDOT":0},{"OBJECT_NAME":"BEIDOU-2 IGSO-1","OBJECT_ID":"2010-036A","EPOCH":"2026-03-14T16:18:58.418784","MEAN_MOTION":1.00250102,"ECCENTRICITY":0.00545782,"INCLINATION":54.2922,"RA_OF_ASC_NODE":163.818,"ARG_OF_PERICENTER":219.4923,"MEAN_ANOMALY":137.9589,"EPHEMERIS_TYPE":0,"CLASSIFICATION_TYPE":"U","NORAD_CAT_ID":36828,"ELEMENT_SET_NO":999,"REV_AT_EPOCH":5714,"BSTAR":0,"MEAN_MOTION_DOT":-1.42e-6,"MEAN_MOTION_DDOT":0},{"OBJECT_NAME":"NILESAT 201","OBJECT_ID":"2010-037A","EPOCH":"2026-03-15T05:00:47.617344","MEAN_MOTION":1.0027227,"ECCENTRICITY":0.00025343,"INCLINATION":0.018,"RA_OF_ASC_NODE":187.7906,"ARG_OF_PERICENTER":164.291,"MEAN_ANOMALY":248.9174,"EPHEMERIS_TYPE":0,"CLASSIFICATION_TYPE":"U","NORAD_CAT_ID":36830,"ELEMENT_SET_NO":999,"REV_AT_EPOCH":5743,"BSTAR":0,"MEAN_MOTION_DOT":-5.9e-7,"MEAN_MOTION_DDOT":0},{"OBJECT_NAME":"RASCOM-QAF 1R","OBJECT_ID":"2010-037B","EPOCH":"2026-03-15T06:46:22.492128","MEAN_MOTION":1.00270549,"ECCENTRICITY":0.00065299,"INCLINATION":0.016,"RA_OF_ASC_NODE":113.9587,"ARG_OF_PERICENTER":238.9227,"MEAN_ANOMALY":284.4782,"EPHEMERIS_TYPE":0,"CLASSIFICATION_TYPE":"U","NORAD_CAT_ID":36831,"ELEMENT_SET_NO":999,"REV_AT_EPOCH":5736,"BSTAR":0,"MEAN_MOTION_DOT":1.7e-7,"MEAN_MOTION_DDOT":0},{"OBJECT_NAME":"AEHF-1 (USA 214)","OBJECT_ID":"2010-039A","EPOCH":"2026-03-15T03:28:41.449152","MEAN_MOTION":1.00270528,"ECCENTRICITY":0.00042912,"INCLINATION":7.9864,"RA_OF_ASC_NODE":69.2703,"ARG_OF_PERICENTER":282.4494,"MEAN_ANOMALY":263.1365,"EPHEMERIS_TYPE":0,"CLASSIFICATION_TYPE":"U","NORAD_CAT_ID":36868,"ELEMENT_SET_NO":999,"REV_AT_EPOCH":5271,"BSTAR":0,"MEAN_MOTION_DOT":1.52e-6,"MEAN_MOTION_DDOT":0},{"OBJECT_NAME":"XM-5","OBJECT_ID":"2010-053A","EPOCH":"2026-03-14T23:21:50.122656","MEAN_MOTION":1.00270062,"ECCENTRICITY":0.00035809,"INCLINATION":0.0698,"RA_OF_ASC_NODE":271.865,"ARG_OF_PERICENTER":256.4013,"MEAN_ANOMALY":239.5673,"EPHEMERIS_TYPE":0,"CLASSIFICATION_TYPE":"U","NORAD_CAT_ID":37185,"ELEMENT_SET_NO":999,"REV_AT_EPOCH":5653,"BSTAR":0,"MEAN_MOTION_DOT":-2.4e-7,"MEAN_MOTION_DDOT":0},{"OBJECT_NAME":"BSAT-3B","OBJECT_ID":"2010-056B","EPOCH":"2026-03-15T00:26:06.458784","MEAN_MOTION":1.00272863,"ECCENTRICITY":0.00013555,"INCLINATION":0.0602,"RA_OF_ASC_NODE":237.0479,"ARG_OF_PERICENTER":45.8598,"MEAN_ANOMALY":6.0862,"EPHEMERIS_TYPE":0,"CLASSIFICATION_TYPE":"U","NORAD_CAT_ID":37207,"ELEMENT_SET_NO":999,"REV_AT_EPOCH":5115,"BSTAR":0,"MEAN_MOTION_DOT":-3.51e-6,"MEAN_MOTION_DDOT":0},{"OBJECT_NAME":"BEIDOU-2 G4","OBJECT_ID":"2010-057A","EPOCH":"2026-03-15T05:53:19.491072","MEAN_MOTION":1.002725,"ECCENTRICITY":0.00080935,"INCLINATION":3.4121,"RA_OF_ASC_NODE":69.4786,"ARG_OF_PERICENTER":213.4177,"MEAN_ANOMALY":138.3151,"EPHEMERIS_TYPE":0,"CLASSIFICATION_TYPE":"U","NORAD_CAT_ID":37210,"ELEMENT_SET_NO":999,"REV_AT_EPOCH":5634,"BSTAR":0,"MEAN_MOTION_DOT":-1.11e-6,"MEAN_MOTION_DDOT":0},{"OBJECT_NAME":"SKYTERRA 1","OBJECT_ID":"2010-061A","EPOCH":"2026-03-15T01:08:32.390304","MEAN_MOTION":1.00272422,"ECCENTRICITY":0.00015864,"INCLINATION":4.9238,"RA_OF_ASC_NODE":50.8967,"ARG_OF_PERICENTER":329.1588,"MEAN_ANOMALY":68.4206,"EPHEMERIS_TYPE":0,"CLASSIFICATION_TYPE":"U","NORAD_CAT_ID":37218,"ELEMENT_SET_NO":999,"REV_AT_EPOCH":5625,"BSTAR":0,"MEAN_MOTION_DOT":-1.16e-6,"MEAN_MOTION_DDOT":0},{"OBJECT_NAME":"HYLAS 1","OBJECT_ID":"2010-065A","EPOCH":"2026-03-15T03:13:38.540640","MEAN_MOTION":1.00613558,"ECCENTRICITY":0.00081526,"INCLINATION":5.4032,"RA_OF_ASC_NODE":74.1655,"ARG_OF_PERICENTER":347.7481,"MEAN_ANOMALY":173.0106,"EPHEMERIS_TYPE":0,"CLASSIFICATION_TYPE":"U","NORAD_CAT_ID":37237,"ELEMENT_SET_NO":999,"REV_AT_EPOCH":594,"BSTAR":0,"MEAN_MOTION_DOT":1.28e-6,"MEAN_MOTION_DDOT":0},{"OBJECT_NAME":"INTELSAT 17 (IS-17)","OBJECT_ID":"2010-065B","EPOCH":"2026-03-15T02:19:38.690976","MEAN_MOTION":1.00271955,"ECCENTRICITY":0.00025513,"INCLINATION":0.0139,"RA_OF_ASC_NODE":172.4383,"ARG_OF_PERICENTER":198.4742,"MEAN_ANOMALY":262.6854,"EPHEMERIS_TYPE":0,"CLASSIFICATION_TYPE":"U","NORAD_CAT_ID":37238,"ELEMENT_SET_NO":999,"REV_AT_EPOCH":5230,"BSTAR":0,"MEAN_MOTION_DOT":-2.0e-8,"MEAN_MOTION_DDOT":0},{"OBJECT_NAME":"BEIDOU-2 IGSO-2","OBJECT_ID":"2010-068A","EPOCH":"2026-03-10T11:51:55.860192","MEAN_MOTION":1.00257833,"ECCENTRICITY":0.00474909,"INCLINATION":47.7215,"RA_OF_ASC_NODE":273.0501,"ARG_OF_PERICENTER":213.2827,"MEAN_ANOMALY":326.5355,"EPHEMERIS_TYPE":0,"CLASSIFICATION_TYPE":"U","NORAD_CAT_ID":37256,"ELEMENT_SET_NO":999,"REV_AT_EPOCH":5580,"BSTAR":0,"MEAN_MOTION_DOT":-1.57e-6,"MEAN_MOTION_DDOT":0},{"OBJECT_NAME":"EUTELSAT KA-SAT 9A","OBJECT_ID":"2010-069A","EPOCH":"2026-03-15T03:22:42.024288","MEAN_MOTION":1.00271329,"ECCENTRICITY":0.00026867,"INCLINATION":0.0568,"RA_OF_ASC_NODE":357.1903,"ARG_OF_PERICENTER":149.3164,"MEAN_ANOMALY":85.894,"EPHEMERIS_TYPE":0,"CLASSIFICATION_TYPE":"U","NORAD_CAT_ID":37258,"ELEMENT_SET_NO":999,"REV_AT_EPOCH":4306,"BSTAR":0,"MEAN_MOTION_DOT":6.1e-7,"MEAN_MOTION_DDOT":0},{"OBJECT_NAME":"HISPASAT 30W-5","OBJECT_ID":"2010-070A","EPOCH":"2026-03-15T05:57:58.493952","MEAN_MOTION":1.00271125,"ECCENTRICITY":0.00035768,"INCLINATION":0.0331,"RA_OF_ASC_NODE":119.3487,"ARG_OF_PERICENTER":260.1918,"MEAN_ANOMALY":212.8064,"EPHEMERIS_TYPE":0,"CLASSIFICATION_TYPE":"U","NORAD_CAT_ID":37264,"ELEMENT_SET_NO":999,"REV_AT_EPOCH":5224,"BSTAR":0,"MEAN_MOTION_DOT":-2.17e-6,"MEAN_MOTION_DDOT":0}]
